DELTA 2 R/B(1)          
1 20453U 90008B   26120.61575665  .00065747  00000+0  61802-3 0  9991
2 20453  35.6012 192.3110 0072496  26.0900 334.3465 15.62562572934246
COSMOS 2058             
1 20465U 90010A   26120.68059206  .00003016  00000+0  17515-3 0  9995
2 20465  82.4684 356.2019 0010366 144.4643 215.7280 15.11726845950097
SL-14 R/B               
1 20466U 90010B   26120.68746250  .00000444  00000+0  50725-4 0  9991
2 20466  82.5043 218.5462 0021083 126.1853 234.1317 14.83616231936194
SL-14 R/B               
1 20511U 90018B   26120.62009789  .00000341  00000+0  39848-4 0  9992
2 20511  82.5225 174.5676 0014719 281.9719  77.9846 14.82187501930279
HST                     
1 20580U 90037B   26120.93332367  .00007708  00000+0  24837-3 0  9999
2 20580  28.4760  43.3958 0001811 346.7350  13.3198 15.30220469781323
SL-16 R/B               
1 20625U 90046B   26120.65559457  .00000304  00000+0  18128-3 0  9990
2 20625  70.9989 188.7736 0015871 230.5244 129.4475 14.15017640855741
COSMOS 2084             
1 20663U 90055A   26120.52015206  .00001898  00000+0  14361-3 0  9991
2 20663  62.7887 158.7600 0008983 213.7696 146.2834 15.05922660944120
SL-6 R/B(2)             
1 20666U 90055D   26120.97361728  .00002558  00000+0  19759-3 0  9996
2 20666  62.7829  76.0150 0033202 357.7954   2.2994 15.03825532946059
SL-8 R/B                
1 20775U 90078B   26120.69518634  .00025410  00000+0  73946-3 0  9991
2 20775  82.9060 204.4915 0355783 198.3171 160.4970 14.90604255817047
SL-8 R/B                
1 21088U 91006B   26120.98865346  .00000172  00000+0  15769-3 0  9995
2 21088  82.9395 131.1499 0021047 247.2687 141.6557 13.77506041771272
OKEAN-3                 
1 21397U 91039A   26120.93939190  .00003960  00000+0  27596-3 0  9997
2 21397  82.5140 286.1948 0014716 148.5392 211.6719 15.05091928872894
COSMOS 2151             
1 21422U 91042A   26120.90847759  .00001875  00000+0  14735-3 0  9990
2 21422  82.4990  33.2986 0010765 239.7890 120.2269 15.00311722871025
SL-14 R/B               
1 21423U 91042B   26120.61670783  .00000344  00000+0  40464-4 0  9999
2 21423  82.4938 171.5052 0018502  72.4377 287.8857 14.81873093860761
ERS-1                   
1 21574U 91050A   26120.89930865  .00000328  00000+0  11927-3 0  9998
2 21574  98.7829 140.4367 0032793  48.9740 311.4274 14.39486976823243
ARIANE 40 R/B           
1 21610U 91050F   26120.75684306  .00000290  00000+0  99231-4 0  9993
2 21610  98.1915 171.0124 0001761 277.0265  83.0725 14.42928276826506
INTERCOSMOS 25          
1 21819U 91086A   26120.82185532  .00000994  00000+0  19238-3 0  9997
2 21819  82.5998 278.4743 1485626   4.5709 356.7329 12.12137222503002
SL-8 R/B                
1 21876U 92008B   26120.72414245  .00000061  00000+0  47397-4 0  9993
2 21876  82.9284 229.0719 0034248 351.6069 117.4116 13.75971172716570
SL-8 R/B                
1 21938U 92020B   26120.98305231 -.00000030  00000+0 -47077-4 0  9991
2 21938  82.9270 114.9210 0029699 149.3865 228.8668 13.75548010708326
USA 81                  
1 21949U 92023A   26120.98193135  .00000186  00000+0  61447-4 0  9991
2 21949  85.0041 101.2526 0001484 108.9013 251.2341 14.32384288102274
COSMOS 2219             
1 22219U 92076A   26120.86717045  .00000291  00000+0  17705-3 0  9993
2 22219  71.0604 268.9908 0016508 124.0420 236.2272 14.14099865725758
SL-16 R/B               
1 22220U 92076B   26120.87066925  .00000099  00000+0  73200-4 0  9999
2 22220  70.9992  78.4538 0012369   5.4040  61.0451 14.16865510729221
COSMOS 2221             
1 22236U 92080A   26120.79816200  .00001838  00000+0  15965-3 0  9996
2 22236  82.5051 229.1567 0014604  23.4308 336.7576 14.96407440788587
SL-16 R/B               
1 22285U 92093B   26120.82320916  .00000171  00000+0  11196-3 0  9993
2 22285  71.0218 254.8198 0006100 241.6980 118.3528 14.15460729720538
COSMOS 2228             
1 22286U 92094A   26120.91305055  .00001870  00000+0  15793-3 0  9996
2 22286  82.5197 187.3157 0019309 124.0758 236.2301 14.97429625783874
SL-16 R/B               
1 22566U 93016B   26120.93958027 -.00000176  00000+0 -65650-4 0  9995
2 22566  71.0038 105.4424 0012432 248.0811 111.8990 14.15307651709567
COSMOS 2242             
1 22626U 93024A   26120.71765414  .00001867  00000+0  16055-3 0  9993
2 22626  82.5208 216.9468 0017528 127.7889 232.4924 14.96763182788170
SL-16 R/B               
1 22803U 93059B   26120.84802350  .00000235  00000+0  13995-3 0  9991
2 22803  70.9900 261.1315 0015612 136.1900 224.0466 14.17241107686929
ARIANE 40 R/B           
1 22830U 93061H   26120.72185778  .00000201  00000+0  89473-4 0  9997
2 22830  98.4838 188.5599 0011763 127.1387 233.0874 14.32886809701553
COSMOS 2278             
1 23087U 94023A   26120.93314120  .00000010  00000+0  29719-4 0  9994
2 23087  71.0547  65.7915 0010834 301.2353  58.7708 14.14389074652191
SL-16 R/B               
1 23088U 94023B   26120.95608016  .00000223  00000+0  13969-3 0  9992
2 23088  70.9997 321.1238 0004926 235.9676 124.0980 14.15016458653488
SL-16 R/B               
1 23343U 94074B   26120.67920215  .00000444  00000+0  66069-4 0  9994
2 23343  97.7030 149.3722 0007813  59.3424  55.0461 14.79461077694935
SL-16 R/B               
1 23405U 94077B   26120.77596029 -.00000156  00000+0 -55063-4 0  9993
2 23405  70.9834 242.9052 0000304  43.4825 316.6322 14.15572578623609
ARIANE 40+ R/B          
1 23561U 95021B   26120.73905810  .00000262  00000+0  97460-4 0  9997
2 23561  98.4425 191.4953 0006403 356.8790 114.4023 14.39806382626737
SL-16 R/B               
1 23705U 95058B   26120.85614074 -.00000263  00000+0 -11038-3 0  9998
2 23705  71.0212  70.7303 0011183  30.4550 329.7221 14.15503391575233
SL-16 R/B               
1 24298U 96051B   26120.93603256  .00000095  00000+0  78317-4 0  9994
2 24298  70.7615  64.6523 0012526  56.7561 303.4757 14.12429475529021
ORBVIEW 2 (SEASTAR)     
1 24883U 97037A   26120.97257712  .00000245  00000+0  10145-3 0  9996
2 24883  98.8646 286.6931 0001126 258.4358 101.6701 14.35528374515973
SL-16 R/B               
1 25400U 98043G   26120.86276661  .00000042  00000+0  36575-4 0  9993
2 25400  98.8334  74.6244 0009093 218.7274 141.3254 14.26060761446420
SL-16 R/B               
1 25407U 98045B   26120.98272897  .00000037  00000+0  43048-4 0  9999
2 25407  71.0108  71.6005 0009331 297.2057  62.8115 14.16196488434501
ISS (ZARYA)             
1 25544U 98067A   26120.65152929  .00006769  00000+0  13072-3 0  9993
2 25544  51.6314 175.3907 0007169   8.3355 351.7751 15.49036282564386
CZ-4B R/B               
1 25732U 99025C   26120.74005043  .00000069  00000+0  54262-4 0  9995
2 25732  98.6526 163.7628 0036888 193.4912 278.9765 14.18275058395543
OKEAN-O                 
1 25860U 99039A   26120.69747509  .00000601  00000+0  85539-4 0  9999
2 25860  97.9349 180.0334 0001646 111.4862 248.6526 14.80408978442083
SL-16 R/B               
1 25861U 99039B   26120.69611208  .00000538  00000+0  74861-4 0  9991
2 25861  97.9871 179.6873 0016183  89.1401 271.1666 14.81795969444569
DELTA 2 R/B             
1 25876U 99041E   26120.96576094  .00000413  00000+0  10601-3 0  9996
2 25876  51.7606  92.4360 0502356 142.5880 221.1160 14.11937633370414
HELIOS 1B               
1 25977U 99064A   26120.70155051  .00001588  00000+0  17992-3 0  9995
2 25977  98.1650  24.4636 0000446 121.4908 238.6351 14.87876906692994
TERRA                   
1 25994U 99068A   26120.90931712  .00000408  00000+0  92066-4 0  9992
2 25994  97.9496 172.3214 0002956  46.3934  58.4513 14.61064612402706
SL-16 R/B               
1 26070U 00006B   26120.94110053  .00000209  00000+0  13052-3 0  9999
2 26070  71.0041 347.9703 0014433 103.9810 256.2919 14.15833614355957
TITAN 4B R/B            
1 26474U 00047B   26120.90022370  .00003058  00000+0  19241-3 0  9993
2 26474  67.9884 253.6450 0042903 336.0349  23.8802 15.09945341400792
ENVISAT                 
1 27386U 02009A   26120.90067258  .00000093  00000+0  44039-4 0  9990
2 27386  98.3805  73.2830 0001130  87.9654 341.0750 14.39053257266685
IDEFIX & ARIANE 42P R/B 
1 27422U 02021B   26120.86523253  .00000252  00000+0  11226-3 0  9990
2 27422  98.5926  58.8676 0012613  38.2510 321.9566 14.31058521251482
AQUA                    
1 27424U 02022A   26120.96776154  .00000887  00000+0  18653-3 0  9999
2 27424  98.4250  89.3191 0002098  90.6306 311.4871 14.62083303276373
CZ-4B R/B               
1 27432U 02024C   26120.99171581  .00000048  00000+0  47651-4 0  9996
2 27432  98.8737 174.1084 0049291 233.6866 191.9958 14.14556471236636
MIDORI II (ADEOS-II)    
1 27597U 02056A   26120.88652594  .00000303  00000+0  13701-3 0  9991
2 27597  98.7847  79.7546 0001052 139.4896 220.6364 14.29322083217750
H-2A R/B                
1 27601U 02056E   26120.90827517  .00000346  00000+0  13568-3 0  9997
2 27601  98.3282  79.3153 0070424   7.1027  59.1480 14.33797205221599
CZ-4B R/B               
1 28059U 03049C   26120.85256996  .00000418  00000+0  10715-3 0  9990
2 28059  98.6897 117.8183 0049281  72.9501 287.7085 14.55064563194189
CZ-2C R/B               
1 28222U 04012C   26120.69229802  .00076665  00000+0  60404-3 0  9998
2 28222  97.7130 191.1464 0013043 119.8960 240.3599 15.71101835212421
SL-16 R/B               
1 28353U 04021B   26120.50136321 -.00000210  00000+0 -84360-4 0  9999
2 28353  70.9979 123.7642 0006921 304.4609  55.5859 14.14602823130162
CZ-4B R/B               
1 28415U 04035C   26120.65868999  .00007679  00000+0  26366-3 0  9997
2 28415  97.3411 154.2848 0032751 141.7701 218.5871 15.29890523187853
CZ-2C R/B               
1 28480U 04046B   26120.72286950  .00000173  00000+0  79392-4 0  9990
2 28480  98.1969  32.4632 0139501   1.5448 358.6138 14.27012436115929
ARIANE 5 R/B            
1 28499U 04049H   26120.70705939  .00001144  00000+0  13189-3 0  9994
2 28499  98.2692 291.1365 0084014 181.6442 178.4508 14.85365267153515
